[
    {"zipCode": "1602", "name": "FLORIDA"},
    {"zipCode": "1602", "name": "FLORIDA ESTAFETA No.1"},
    {"zipCode": "1602", "name": "JUAN B.JUSTO (ESTACION FCGM. F"},
    {"zipCode": "1602", "name": "PUENTE SAAVEDRA"},
    {"zipCode": "1603", "name": "VILLA MARTELLI"},
    {"zipCode": "1605", "name": "MUNRO"},
    {"zipCode": "1605", "name": "MUNRO"},
    {"zipCode": "1606", "name": "CARAPACHAY"},
    {"zipCode": "1606", "name": "MUNRO"},
    {"zipCode": "1606", "name": "MUNRO ESTAFETA No.2"},
    {"zipCode": "1607", "name": "BARRIO ARCA"},
    {"zipCode": "1607", "name": "BARRIO OBRERO FERROVIARIO"},
    {"zipCode": "1607", "name": "JOSE MARTI"},
    {"zipCode": "1607", "name": "VILLA ADELINA"},
    {"zipCode": "1607", "name": "VILLA ADELINA ESTAFETA N 1"},
    {"zipCode": "1607", "name": "VILLA ADELINA ESTAFETA N 2"},
    {"zipCode": "1607", "name": "VILLA ADELINA ESTAFETA N 3"},
    {"zipCode": "1607", "name": "VILLA ADELINA ESTAFETA N 4"},
    {"zipCode": "1609", "name": "BOULOGNE"},
    {"zipCode": "1609", "name": "BOULOGNE ESTAFETA No.1"},
    {"zipCode": "1609", "name": "BOULOGNE ESTAFETA No.3"},
    {"zipCode": "1609", "name": "BOULOGNE SUR MER"},
    {"zipCode": "1636", "name": "LA LUCILA"},
    {"zipCode": "1636", "name": "LA LUCILA ESTAFETA No.1"},
    {"zipCode": "1636", "name": "OLIVOS"},
    {"zipCode": "1636", "name": "OLIVOS ESTAFETA N 1"},
    {"zipCode": "1636", "name": "OLIVOS ESTAFETA N 2"},
    {"zipCode": "1636", "name": "OLIVOS ESTAFETA N 3"},
    {"zipCode": "1638", "name": "VICENTE LOPEZ"},
    {"zipCode": "1640", "name": "ACASSUSO"},
    {"zipCode": "1640", "name": "BARRIO VILLA PRIMAVERA"},
    {"zipCode": "1640", "name": "MARTINEZ"},
    {"zipCode": "1640", "name": "MARTINEZ ESTAFETA NRO.2"},
    {"zipCode": "1640", "name": "MARTINEZ ESTAFETA NRO.3"},
    {"zipCode": "1640", "name": "MARTINEZ"},
    {"zipCode": "1640", "name": "MARTIENZ"},
    {"zipCode": "1640", "name": "MARTINEZ"},
    {"zipCode": "1641", "name": "ACASSUSO"},
    {"zipCode": "1642", "name": "SAN ISIDRO"},
    {"zipCode": "1642", "name": "SAN ISIDRO ESTAFETA N 1"},
    {"zipCode": "1642", "name": "SAN ISIDRO ESTAFETA N 2"},
    {"zipCode": "1642", "name": "SAN ISIDRO ESTAFETA N 3"},
    {"zipCode": "1642", "name": "SAN ISIDRO ESTAFETA N 4"},
    {"zipCode": "1642", "name": "SAN ISIDRO ESTAFETA N 5"},
    {"zipCode": "1642", "name": "SAN ISIDRO ESTAFETA N 6"},
    {"zipCode": "1643", "name": "BECCAR"},
    {"zipCode": "1644", "name": "VICTORIA"},
    {"zipCode": "1646", "name": "BARRIO SAN JORGE (SAN FERNANDO"},
    {"zipCode": "1646", "name": "SAN FERNANDO"},
    {"zipCode": "1646", "name": "SAN FERNANDO ESTAFETA N 1"},
    {"zipCode": "1646", "name": "SAN FERNANDO ESTAFETA N 2"},
    {"zipCode": "1646", "name": "SAN FERNANDO ESTAFETA N 3"},
    {"zipCode": "1646", "name": "SAN FERNANDO ESTAFETA N 4"},
    {"zipCode": "1646", "name": "SAN FERNANDO ESTAFETA N 5"},
    {"zipCode": "1646", "name": "VIRREYES"},
    {"zipCode": "1650", "name": "GENERAL SAN MARTIN"},
    {"zipCode": "1650", "name": "VILLA BERNARDO MONTEAGUDO"},
    {"zipCode": "1650", "name": "VILLA BILLINGHURST"},
    {"zipCode": "1650", "name": "VILLA BONICH"},
    {"zipCode": "1650", "name": "VILLA BONICH ESTAFETA N 1"},
    {"zipCode": "1650", "name": "VILLA CHACABUCO"},
    {"zipCode": "1650", "name": "VILLA LIBERTAD"},
    {"zipCode": "1650", "name": "VILLA MAIPU"},
    {"zipCode": "1650", "name": "VILLA MAIPU ESTAFETA N 1"},
    {"zipCode": "1651", "name": "SAN ANDRES"},
    {"zipCode": "1651", "name": "VILLA CONCEPCION"},
    {"zipCode": "1651", "name": "VILLA SAN ANDRES"},
    {"zipCode": "1651", "name": "VILLA SAN ANDRES ESTAFETA N 1"},
    {"zipCode": "1652", "name": "MALAVER"},
    {"zipCode": "1653", "name": "VILLA BALLESTER"},
    {"zipCode": "1653", "name": "VILLA BALLESTER ESTAFETA N 1"},
    {"zipCode": "1653", "name": "VILLA BALLESTER ESTAFETA N 2"},
    {"zipCode": "1653", "name": "VILLA BALLESTER ESTAFETA N 3"},
    {"zipCode": "1653", "name": "VILLA BALLESTER ESTAFETA N 4"},
    {"zipCode": "1653", "name": "VILLA GRAL.JOSE TOMAS GUIDO"},
    {"zipCode": "1655", "name": "BARRIO LIBERTADOR"},
    {"zipCode": "1655", "name": "JOSE LEON SUAREZ"},
    {"zipCode": "1655", "name": "VILLA JOSE LEON SUAREZ"},
    {"zipCode": "1655", "name": "VILLA JOSE LEON SUAREZ ESTAFET"},
    {"zipCode": "1655", "name": "VILLA JOSE LEON SUAREZ ESTAFET"},
    {"zipCode": "1655", "name": "VILLA JOSE LEON SUAREZ ESTAFET"},
    {"zipCode": "1655", "name": "VILLA JOSE LEON SUAREZ ESTAFET"},
    {"zipCode": "1655", "name": "VILLA LANZONI"},
    {"zipCode": "1655", "name": "CHILAVERT"},
    {"zipCode": "1657", "name": "CHURRUCA"},
    {"zipCode": "1657", "name": "PABLO PODESTA"},
    {"zipCode": "1657", "name": "PABLO PODESTA ESTAFETA N 1"},
    {"zipCode": "1657", "name": "LOMA HERMOSA"},
    {"zipCode": "1657", "name": "REMEDIOS DE ESCALADA"},
    {"zipCode": "1672", "name": "VILLA LYNCH"},
    {"zipCode": "1672", "name": "VILLA LYNCH ESTAFETA N 1"},
    {"zipCode": "1674", "name": "VILLA SAENZ PEÑA"},
    {"zipCode": "1674", "name": "VILLA RAFFO"},
    {"zipCode": "1674", "name": "VILLA SAENZ PE@A"},
    {"zipCode": "1676", "name": "VILLA SANTOS LUGARES"},
    {"zipCode": "1676", "name": "SANTOS LUGARES"},
    {"zipCode": "1678", "name": "CASEROS"},
    {"zipCode": "1678", "name": "CASEROS ESTAFETA No.1"},
    {"zipCode": "1678", "name": "CASEROS SUCURSAL No.1"},
    {"zipCode": "1682", "name": "MARTIN CORONADO"},
    {"zipCode": "1682", "name": "MARTIN CORONADO"},
    {"zipCode": "1682", "name": "VILLA BOSCH"},
    {"zipCode": "1682", "name": "VILLA MARTIN CORONADO"},
    {"zipCode": "1684", "name": "EL PALOMAR"},
    {"zipCode": "1684", "name": "EL PALOMAR ESTAFETA No.1"},
    {"zipCode": "1684", "name": "EL PALOMAR ESTAFETA No.2"},
    {"zipCode": "1684", "name": "EL PALOMAR ESTAFETA No.3"},
    {"zipCode": "1684", "name": "EL PALOMAR ESTAFETA No.4"},
    {"zipCode": "1801", "name": "MONTE GRANDE"},
    {"zipCode": "1822", "name": "VALENTIN ALSINA"},
    {"zipCode": "1822", "name": "VALENTIN ALSINA ESTAFETA N 1"},
    {"zipCode": "1822", "name": "VALENTIN ALSINA ESTAFETA N 2"},
    {"zipCode": "1824", "name": "GERLI"},
    {"zipCode": "1824", "name": "LANUS"},
    {"zipCode": "1824", "name": "LANUS ESTAFETA No.1"},
    {"zipCode": "1824", "name": "LANUS ESTAFETA No.10"},
    {"zipCode": "1824", "name": "LANUS ESTAFETA No.2"},
    {"zipCode": "1824", "name": "LANUS ESTAFETA No.3"},
    {"zipCode": "1824", "name": "LANUS ESTAFETA No.4"},
    {"zipCode": "1824", "name": "LANUS ESTAFETA No.5"},
    {"zipCode": "1824", "name": "LANUS ESTAFETA No.7"},
    {"zipCode": "1824", "name": "LANUS ESTAFETA No.8"},
    {"zipCode": "1824", "name": "LANUS ESTAFETA No.9"},
    {"zipCode": "1824", "name": "VILLA INDUSTRIALES"},
    {"zipCode": "1825", "name": "MONTE CHINGOLO"},
    {"zipCode": "1825", "name": "MONTE CHINGOLO ESTAFETA No.1"},
    {"zipCode": "1825", "name": "MONTE CHINGOLO ESTAFETA No.2"},
    {"zipCode": "1825", "name": "MONTE CHINGOLO ESTAFETA No.3"},
    {"zipCode": "1825", "name": "MONTE CHINGOLO ESTAFETA No.4"},
    {"zipCode": "1825", "name": "MONTE CHINGOLO ESTAFETA No.5"},
    {"zipCode": "1825", "name": "MONTE CHINGOLO ESTAFETA No.6"},
    {"zipCode": "1825", "name": "MONTE CHINGOLO ESTAFETA No.7"},
    {"zipCode": "1826", "name": "REMEDIOS DE ESCALADA"},
    {"zipCode": "1826", "name": "REMEDIOS DE ESCALADA ESTAFETA"},
    {"zipCode": "1826", "name": "REMEDIOS DE ESCALADA ESTAFETA"},
    {"zipCode": "1826", "name": "REMEDIOS DE ESCALADA ESTAFETA"},
    {"zipCode": "1826", "name": "REMEDIOS DE ESCALADA ESTAFETA"},
    {"zipCode": "1828", "name": "BANFIELD"},
    {"zipCode": "1828", "name": "BARRIO MARIANO MORENO (BANFIEL"},
    {"zipCode": "1828", "name": "BARRIO PARQUE UNION Y FRATERNI"},
    {"zipCode": "1829", "name": "REMEDIOS DE ESCALADA"},
    {"zipCode": "1832", "name": "LOMAS DE ZAMORA"},
    {"zipCode": "1832", "name": "LOMAS DE ZAMORA ESTAFETA No.1"},
    {"zipCode": "1832", "name": "LOMAS DE ZAMORA ESTAFETA No.2"},
    {"zipCode": "1832", "name": "LOMAS DE ZAMORA ESTAFETA No.3"},
    {"zipCode": "1832", "name": "LOMAS DE ZAMORA ESTAFETA No.5"},
    {"zipCode": "1832", "name": "LOMAS DE ZAMORA ESTAFETA No.6"},
    {"zipCode": "1832", "name": "LOMAS DE ZAMORA ESTEFETA No.4"},
    {"zipCode": "1834", "name": "TEMPERLEY"},
    {"zipCode": "1834", "name": "TEMPERLEY ESTAFETA N 1"},
    {"zipCode": "1834", "name": "TEMPERLEY ESTAFETA N 2"},
    {"zipCode": "1834", "name": "TEMPERLEY ESTAFETA N 3"},
    {"zipCode": "1834", "name": "TEMPERLEY ESTAFETA N 6"},
    {"zipCode": "1834", "name": "TEMPERLEY ESTAFETA N 7"},
    {"zipCode": "1834", "name": "TURDERA"},
    {"zipCode": "1836", "name": "LLAVALLOL"},
    {"zipCode": "1842", "name": "MONTE GRANDE"},
    {"zipCode": "1842", "name": "MONTE GRANDE ESTAFETA No.1"},
    {"zipCode": "1842", "name": "MONTE GRANDE ESTAFETA No.2"},
    {"zipCode": "1842", "name": "MONTE GRANDE ESTAFETA No.3"},
    {"zipCode": "1842", "name": "MONTE GRANDE ESTAFETA No.4"},
    {"zipCode": "1842", "name": "MONTE GRANDE ESTAFETA No.5"},
    {"zipCode": "1842", "name": "MONTE GRANDE ESTAFETA No.6"},
    {"zipCode": "1845", "name": "JOSE MARMOL"},
    {"zipCode": "1846", "name": "ADROGUE"},
    {"zipCode": "1846", "name": "ALMIRANTE BROWN"},
    {"zipCode": "1846", "name": "JOSE MARMOL"},
    {"zipCode": "1852", "name": "BURZACO"},
    {"zipCode": "1852", "name": "BURZACO ESTAFETA No.1"},
    {"zipCode": "1852", "name": "BURZACO ESTAFETA No.2"},
    {"zipCode": "1854", "name": "LONGCHAMPS"},
    {"zipCode": "1854", "name": "LONGCHAMPS ESTAFETA No.2"},
    {"zipCode": "1870", "name": "AVELLANEDA"},
    {"zipCode": "1870", "name": "BULLRICH"},
    {"zipCode": "1870", "name": "CRUCESITA"},
    {"zipCode": "1870", "name": "GERLI"},
    {"zipCode": "1870", "name": "GERLI ESTAFETA No.1"},
    {"zipCode": "1870", "name": "PIÑEYRO"},
    {"zipCode": "1870", "name": "VILLA CASTELLINO"},
    {"zipCode": "1870", "name": "VILLA ECHENAGUCIA"},
    {"zipCode": "1871", "name": "DOCK SUD"},
    {"zipCode": "1872", "name": "COSTA DE SARANDI"},
    {"zipCode": "1872", "name": "LA COSTA (SARANDI, PDO.AVELLAN"},
    {"zipCode": "1872", "name": "SARANDI"},
    {"zipCode": "1872", "name": "SARANDI ESTAFETA N 1"},
    {"zipCode": "1874", "name": "BARRIO OBRERO VILLA AVELLANEDA"},
    {"zipCode": "1874", "name": "COLONIA DE VILLA DOMINICO"},
    {"zipCode": "1874", "name": "LAS QUINTAS (VILLA DOMINICO, P"},
    {"zipCode": "1874", "name": "VILLA BARILARI"},
    {"zipCode": "1874", "name": "VILLA DOMINICO"},
    {"zipCode": "1874", "name": "VILLA DOMINICO ESTAFETA N 1"},
    {"zipCode": "1874", "name": "VILLA DOMINICO ESTAFETA N 2"},
    {"zipCode": "1874", "name": "VILLA HUE"},
    {"zipCode": "1874", "name": "VILLA ITE"},
    {"zipCode": "1874", "name": "VILLA NUÑEZ"},
    {"zipCode": "1875", "name": "WILDE"},
    {"zipCode": "1875", "name": "WILDE ESTAFETA N71"},
    {"zipCode": "1875", "name": "WILDE ESTE"}
]
